CCSDS_OMM_VERS = 2.0
CREATION_DATE  = 
ORIGINATOR     = 

OBJECT_NAME    = CZ-2C R/B
OBJECT_ID      = 2022-132E
CENTER_NAME    = EARTH
REF_FRAME      = TEME
TIME_SYSTEM    = UTC
MEAN_ELEMENT_THEORY = SGP/SGP4

EPOCH          = 2026-01-26T11:36:35.040960
MEAN_MOTION    = 15.58145345
ECCENTRICITY   = .00166829
INCLINATION    = 97.2956
RA_OF_ASC_NODE = 28.6472
ARG_OF_PERICENTER = 243.7409
MEAN_ANOMALY   = 116.2133

EPHEMERIS_TYPE = 0
CLASSIFICATION_TYPE = U
NORAD_CAT_ID   = 54039
ELEMENT_SET_NO = 999
REV_AT_EPOCH   = 18379
BSTAR          = .58398214E-3
MEAN_MOTION_DOT = .44324E-3
MEAN_MOTION_DDOT = 0

CCSDS_OMM_VERS = 2.0
CREATION_DATE  = 
ORIGINATOR     = 

OBJECT_NAME    = GSLV R/B
OBJECT_ID      = 2022-138AN
CENTER_NAME    = EARTH
REF_FRAME      = TEME
TIME_SYSTEM    = UTC
MEAN_ELEMENT_THEORY = SGP/SGP4

EPOCH          = 2026-01-26T15:56:08.819808
MEAN_MOTION    = 14.96435566
ECCENTRICITY   = .0019809
INCLINATION    = 87.3845
RA_OF_ASC_NODE = 180.4266
ARG_OF_PERICENTER = 308.2478
MEAN_ANOMALY   = 51.6970

EPHEMERIS_TYPE = 0
CLASSIFICATION_TYPE = U
NORAD_CAT_ID   = 54149
ELEMENT_SET_NO = 999
REV_AT_EPOCH   = 17764
BSTAR          = .39811E-3
MEAN_MOTION_DOT = .4558E-4
MEAN_MOTION_DDOT = 0

CCSDS_OMM_VERS = 2.0
CREATION_DATE  = 
ORIGINATOR     = 

OBJECT_NAME    = XRISM
OBJECT_ID      = 2023-137A
CENTER_NAME    = EARTH
REF_FRAME      = TEME
TIME_SYSTEM    = UTC
MEAN_ELEMENT_THEORY = SGP/SGP4

EPOCH          = 2026-01-26T19:57:31.521312
MEAN_MOTION    = 15.10942212
ECCENTRICITY   = .0008074
INCLINATION    = 31.0009
RA_OF_ASC_NODE = 194.2880
ARG_OF_PERICENTER = 339.9094
MEAN_ANOMALY   = 20.1225

EPHEMERIS_TYPE = 0
CLASSIFICATION_TYPE = U
NORAD_CAT_ID   = 57800
ELEMENT_SET_NO = 999
REV_AT_EPOCH   = 13145
BSTAR          = .48533E-3
MEAN_MOTION_DOT = .8398E-4
MEAN_MOTION_DDOT = 0

CCSDS_OMM_VERS = 2.0
CREATION_DATE  = 
ORIGINATOR     = 

OBJECT_NAME    = ACS3
OBJECT_ID      = 2024-077B
CENTER_NAME    = EARTH
REF_FRAME      = TEME
TIME_SYSTEM    = UTC
MEAN_ELEMENT_THEORY = SGP/SGP4

EPOCH          = 2026-01-26T20:27:31.383648
MEAN_MOTION    = 13.87806112
ECCENTRICITY   = .0048776
INCLINATION    = 97.2311
RA_OF_ASC_NODE = 337.3662
ARG_OF_PERICENTER = 214.7916
MEAN_ANOMALY   = 145.0055

EPHEMERIS_TYPE = 0
CLASSIFICATION_TYPE = U
NORAD_CAT_ID   = 59588
ELEMENT_SET_NO = 999
REV_AT_EPOCH   = 8839
BSTAR          = .21358E-1
MEAN_MOTION_DOT = .25637E-3
MEAN_MOTION_DDOT = 0

CCSDS_OMM_VERS = 2.0
CREATION_DATE  = 
ORIGINATOR     = 

OBJECT_NAME    = SZ-21 MODULE
OBJECT_ID      = 2025-246C
CENTER_NAME    = EARTH
REF_FRAME      = TEME
TIME_SYSTEM    = UTC
MEAN_ELEMENT_THEORY = SGP/SGP4

EPOCH          = 2026-01-26T13:29:08.811456
MEAN_MOTION    = 15.65368052
ECCENTRICITY   = .0003291
INCLINATION    = 41.4753
RA_OF_ASC_NODE = 102.0620
ARG_OF_PERICENTER = 241.2608
MEAN_ANOMALY   = 118.7902

EPHEMERIS_TYPE = 0
CLASSIFICATION_TYPE = U
NORAD_CAT_ID   = 66515
ELEMENT_SET_NO = 999
REV_AT_EPOCH   = 1146
BSTAR          = .36755E-3
MEAN_MOTION_DOT = .37546E-3
MEAN_MOTION_DDOT = 0

